2023-091J               
1 57174U 23091J   26132.95651287  .00002148  00000+0  12288-3 0  9994
2 57174  97.5082 186.5567 0011653 269.2114  90.7782 15.13684489158305
CUBEBEL 2 (EU11S)       
1 57175U 23091K   26132.90239203  .00007446  00000+0  27252-3 0  9993
2 57175  97.5074 195.8248 0008935 232.6674 127.3752 15.28307476158915
SITRO-AIS 5 (KATYS)     
1 57176U 23091L   26132.92664438  .00007685  00000+0  27834-3 0  9999
2 57176  97.5084 196.5105 0010714 219.8145 140.2309 15.28624878158959
ZORKIY-2M 1             
1 57177U 23091M   26132.94131222  .00004055  00000+0  18884-3 0  9995
2 57177  97.5117 192.0272 0012178 234.8262 125.1833 15.20432628158648
CUBESX-HSE 3 (RS42S)    
1 57178U 23091N   26132.93914942  .00008095  00000+0  27841-3 0  9994
2 57178  97.5114 198.1035 0010394 209.1081 150.9581 15.30300345159033
MONITOR-3 (RS58S)       
1 57180U 23091Q   26132.95364070  .00006349  00000+0  24123-3 0  9990
2 57180  97.5107 196.1579 0011045 216.9765 143.0713 15.27113297158918
MONITOR-4 (RS57S)       
1 57182U 23091S   26132.93488727  .00006650  00000+0  25178-3 0  9992
2 57182  97.5101 196.1080 0010998 217.2973 142.7503 15.27210441158914
MONITOR-2 (RS39S)       
1 57184U 23091U   26132.93165883  .00002976  00000+0  14716-3 0  9992
2 57184  97.5099 191.4472 0010074 229.5571 130.4785 15.18573298158604
SVYATOBOR 1 (RS60S)     
1 57187U 23091X   26132.91884329  .00005702  00000+0  22447-3 0  9996
2 57187  97.5112 196.5545 0008929 207.2276 152.8495 15.25995837158938
HORS 1                  
1 57188U 23091Y   26132.90669699  .00005931  00000+0  23272-3 0  9998
2 57188  97.5091 196.3094 0008425 206.6339 153.4468 15.26091086158937
VIZARD-METEO (RS38S)    
1 57189U 23091Z   26132.95524327  .00010672  00000+0  31757-3 0  9997
2 57189  97.5110 201.7642 0007659 184.9316 175.1853 15.34879492159283
SITRO-AIS 6 (CHIRKIN)   
1 57192U 23091AC  26132.95721803  .00003738  00000+0  15145-3 0  9997
2 57192  97.5090 195.8428 0010875 223.5028 136.5353 15.25250412158913
SITRO-AIS 8 (ANOKHIN)   
1 57193U 23091AD  26132.93818922  .00008058  00000+0  26996-3 0  9991
2 57193  97.5079 197.9720 0010030 214.9141 145.1443 15.31157509159054
SITRO-AIS 7 (FARTUSHNIY)
1 57194U 23091AE  26132.95335951  .00003582  00000+0  14654-3 0  9995
2 57194  97.5088 195.6817 0010695 224.7015 135.3361 15.24956316158901
AVION KALUGA 650        
1 57195U 23091AF  26132.94573072  .00003407  00000+0  16146-3 0  9997
2 57195  97.5114 192.6711 0009321 226.7133 133.3325 15.19966917158673
HORS 2                  
1 57196U 23091AG  26132.94501657  .00008363  00000+0  28183-3 0  9998
2 57196  97.5110 199.5173 0008041 197.3316 162.7652 15.30972279159134
A-SEANSAT-PG1           
1 57197U 23091AH  26132.90398523  .00010764  00000+0  31200-3 0  9993
2 57197  97.5100 201.7654 0007454 193.1246 166.9805 15.35707824159297
SITRO-AIS 10 (BURDAEV)  
1 57199U 23091AK  26132.91822944  .00011694  00000+0  32245-3 0  9998
2 57199  97.5100 202.6538 0007050 186.2276 173.8882 15.37249725159349
SITRO-AIS 9 (SHCHUKIN)  
1 57201U 23091AM  26132.93391504  .00012119  00000+0  33895-3 0  9992
2 57201  97.5098 202.4263 0007252 186.9368 173.1776 15.36797035159330
UTMN 2 (RS27S)          
1 57203U 23091AP  26132.91099304  .00007807  00000+0  26173-3 0  9994
2 57203  97.5108 199.6653 0008073 193.2094 166.8937 15.31161636159147
SITRO-AIS 12 (SMIRENNIY)
1 57204U 23091AQ  26132.93111905  .00012424  00000+0  34425-3 0  9999
2 57204  97.5111 202.8688 0007063 180.8949 179.2283 15.37081921159355
SITRO-AIS 11 (SHEFFER)  
1 57208U 23091AU  26132.95388771  .00012678  00000+0  34683-3 0  9999
2 57208  97.5109 203.1174 0006984 180.5814 179.5423 15.37473884159373
H2SAT (HEINRICH HERTZ)  
1 57213U 23093A   26132.89311619  .00000015  00000+0  00000+0 0  9991
2 57213   0.0170 246.4856 0000725 246.3212  60.0859  1.00270567 10565
KUZGTU 1 (RS47S)        
1 57217U 23091AV  26132.96551994  .00007571  00000+0  27090-3 0  9999
2 57217  97.5087 197.1067 0010462 213.1553 146.9032 15.29031860158996
QIANKUN-1               
1 57422U 23103B   26132.56781838  .00128422  90389-5  15222-3 0  9997
2 57422  96.1627 179.8723 0027707 120.9126 239.4889 16.07708803161577
FENGYUN 3F              
1 57490U 23111A   26132.88242145  .00000019  00000+0  29615-4 0  9997
2 57490  98.6863 203.5463 0001225 114.6831 245.4473 14.19932641143854
HJ-2F                   
1 57519U 23116A   26132.94843655  .00005000  00000+0  22302-3 0  9994
2 57519  97.3855 138.7953 0009546 154.2571 205.9142 15.21810026153391
XRISM                   
1 57800U 23137A   26132.94557253  .00002907  00000+0  15891-3 0  9994
2 57800  31.0019 227.8274 0007662 328.2547  31.7629 15.12163184147529
METEOR-M2 4             
1 59051U 24039A   26132.94203052 -.00000001  00000+0  19376-4 0  9998
2 59051  98.6991  92.6878 0005914 273.2525  86.7976 14.22425856114254
