OBJECT_NAME,OBJECT_ID,EPOCH,MEAN_MOTION,ECCENTRICITY,INCLINATION,RA_OF_ASC_NODE,ARG_OF_PERICENTER,MEAN_ANOMALY,EPHEMERIS_TYPE,CLASSIFICATION_TYPE,NORAD_CAT_ID,ELEMENT_SET_NO,REV_AT_EPOCH,BSTAR,MEAN_MOTION_DOT,MEAN_MOTION_DDOT
2023-091J,2023-091J,2026-05-12T22:57:22.711968,15.13684489,.00116538,97.5082,186.5567,269.2114,90.7782,0,U,57174,999,15830,.12287578E-3,.2148E-4,0
CUBEBEL 2 (EU11S),2023-091K,2026-05-12T21:39:26.671392,15.28307476,.0008935,97.5074,195.8248,232.6674,127.3752,0,U,57175,999,15891,.2725216E-3,.7446E-4,0
SITRO-AIS 5 (KATYS),2023-091L,2026-05-12T22:14:22.074432,15.28624878,.00107146,97.5084,196.5105,219.8145,140.2309,0,U,57176,999,15895,.27833615E-3,.7685E-4,0
ZORKIY-2M 1,2023-091M,2026-05-12T22:35:29.375808,15.20432628,.0012178,97.5117,192.0272,234.8262,125.1833,0,U,57177,999,15864,.18883859E-3,.4055E-4,0
CUBESX-HSE 3 (RS42S),2023-091N,2026-05-12T22:32:22.509888,15.30300345,.00103949,97.5114,198.1035,209.1081,150.9581,0,U,57178,999,15903,.2784111E-3,.8095E-4,0
MONITOR-3 (RS58S),2023-091Q,2026-05-12T22:53:14.556480,15.27113297,.00110452,97.5107,196.1579,216.9765,143.0713,0,U,57180,999,15891,.2412262E-3,.6349E-4,0
MONITOR-4 (RS57S),2023-091S,2026-05-12T22:26:14.260128,15.27210441,.00109985,97.5101,196.1080,217.2973,142.7503,0,U,57182,999,15891,.25177925E-3,.665E-4,0
MONITOR-2 (RS39S),2023-091U,2026-05-12T22:21:35.322912,15.18573298,.0010074,97.5099,191.4472,229.5571,130.4785,0,U,57184,999,15860,.14715968E-3,.2976E-4,0
SVYATOBOR 1 (RS60S),2023-091X,2026-05-12T22:03:08.060256,15.25995837,.00089295,97.5112,196.5545,207.2276,152.8495,0,U,57187,999,15893,.22447054E-3,.5702E-4,0
HORS 1,2023-091Y,2026-05-12T21:45:38.619936,15.26091086,.00084259,97.5091,196.3094,206.6339,153.4468,0,U,57188,999,15893,.23272355E-3,.5931E-4,0
VIZARD-METEO (RS38S),2023-091Z,2026-05-12T22:55:33.018528,15.34879492,.00076596,97.5110,201.7642,184.9316,175.1853,0,U,57189,999,15928,.31757072E-3,.10672E-3,0
SITRO-AIS 6 (CHIRKIN),2023-091AC,2026-05-12T22:58:23.637792,15.25250412,.0010875,97.5090,195.8428,223.5028,136.5353,0,U,57192,999,15891,.15144557E-3,.3738E-4,0
SITRO-AIS 8 (ANOKHIN),2023-091AD,2026-05-12T22:30:59.548608,15.31157509,.00100303,97.5079,197.9720,214.9141,145.1443,0,U,57193,999,15905,.26996007E-3,.8058E-4,0
SITRO-AIS 7 (FARTUSHNIY),2023-091AE,2026-05-12T22:52:50.261664,15.24956316,.00106959,97.5088,195.6817,224.7015,135.3361,0,U,57194,999,15890,.1465377E-3,.3582E-4,0
AVION KALUGA 650,2023-091AF,2026-05-12T22:41:51.134208,15.19966917,.00093214,97.5114,192.6711,226.7133,133.3325,0,U,57195,999,15867,.16146441E-3,.3407E-4,0
HORS 2,2023-091AG,2026-05-12T22:40:49.431648,15.30972279,.0008041,97.5110,199.5173,197.3316,162.7652,0,U,57196,999,15913,.28182702E-3,.8363E-4,0
A-SEANSAT-PG1,2023-091AH,2026-05-12T21:41:44.323872,15.35707824,.00074545,97.5100,201.7654,193.1246,166.9805,0,U,57197,999,15929,.31199823E-3,.10764E-3,0
SITRO-AIS 10 (BURDAEV),2023-091AK,2026-05-12T22:02:15.023616,15.37249725,.000705,97.5100,202.6538,186.2276,173.8882,0,U,57199,999,15934,.32244714E-3,.11694E-3,0
SITRO-AIS 9 (SHCHUKIN),2023-091AM,2026-05-12T22:24:50.259456,15.36797035,.00072522,97.5098,202.4263,186.9368,173.1776,0,U,57201,999,15933,.33895379E-3,.12119E-3,0
UTMN 2 (RS27S),2023-091AP,2026-05-12T21:51:49.798656,15.31161636,.00080739,97.5108,199.6653,193.2094,166.8937,0,U,57203,999,15914,.26172751E-3,.7807E-4,0
SITRO-AIS 12 (SMIRENNIY),2023-091AQ,2026-05-12T22:20:48.685920,15.37081921,.00070638,97.5111,202.8688,180.8949,179.2283,0,U,57204,999,15935,.34425094E-3,.12424E-3,0
SITRO-AIS 11 (SHEFFER),2023-091AU,2026-05-12T22:53:35.898144,15.37473884,.00069847,97.5109,203.1174,180.5814,179.5423,0,U,57208,999,15937,.34683467E-3,.12678E-3,0
H2SAT (HEINRICH HERTZ),2023-093A,2026-05-12T21:26:05.238816,1.00270567,.00007256,0.0170,246.4856,246.3212,60.0859,0,U,57213,999,1056,0,.15E-6,0
KUZGTU 1 (RS47S),2023-091AV,2026-05-12T23:10:20.922816,15.29031860,.00104623,97.5087,197.1067,213.1553,146.9032,0,U,57217,999,15899,.2708956E-3,.7571E-4,0
QIANKUN-1,2023-103B,2026-05-12T13:37:39.508032,16.07708803,.0027707,96.1627,179.8723,120.9126,239.4889,0,U,57422,999,16157,.15222E-3,.128422E-2,.90389E-5
FENGYUN 3F,2023-111A,2026-05-12T21:10:41.213280,14.19932641,.00012253,98.6863,203.5463,114.6831,245.4473,0,U,57490,999,14385,.29615204E-4,.19E-6,0
HJ-2F,2023-116A,2026-05-12T22:45:44.917920,15.21810026,.00095462,97.3855,138.7953,154.2571,205.9142,0,U,57519,999,15339,.22302268E-3,.5E-4,0
XRISM,2023-137A,2026-05-12T22:41:37.466592,15.12163184,.00076622,31.0019,227.8274,328.2547,31.7629,0,U,57800,999,14752,.15890912E-3,.2907E-4,0
METEOR-M2 4,2024-039A,2026-05-12T22:36:31.436928,14.22425856,.00059149,98.6991,92.6878,273.2525,86.7976,0,U,59051,999,11425,.1937614E-4,-.1E-7,0
